MALLIGYONG-1            
1 58400U 23179A   24208.18590993  .00007604  00000+0  33963-3 0  9992
2 58400  97.3980  94.3735 0003475  78.2757 281.8869 15.21624342 37654
